{
  "type": "FeatureCollection",
  "features": [
    {
      "type": "Feature",
      "properties": {
        "norad_id": 38068,
        "name": "COSMOS 2251 DEB",
        "group": "cosmos-2251-debris",
        "lat": 46.57952586425741,
        "lon": -39.11227312072179,
        "alt_km": 750.886018539798,
        "timestamp": "2025-12-15T10:55:21.542976+00:00",
        "meta_object_name": "COSMOS 2251 DEB",
        "meta_object_id": "1993-036BSA",
        "meta_epoch": "2025-11-26T00:12:22.263264",
        "meta_mean_motion": 14.35960004,
        "meta_eccentricity": 0.00240903,
        "meta_inclination": 74.0219,
        "meta_ra_of_asc_node": 338.9788,
        "meta_arg_of_pericenter": 72.1007,
        "meta_mean_anomaly": 288.2769,
        "meta_ephemeris_type": 0,
        "meta_classification_type": "U",
        "meta_norad_cat_id": 38068,
        "meta_element_set_no": 999,
        "meta_rev_at_epoch": 66406,
        "meta_bstar": 0.00028750999,
        "meta_mean_motion_dot": 8.11e-06,
        "meta_mean_motion_ddot": 0,
        "tle_line1": "1 38068U 93036BSA 25330.00859101  .00000811  00000+0  28751-3 0  9998",
        "tle_line2": "2 38068  74.0219 338.9788 0024090  72.1007 288.2769 14.35960004664064"
      },
      "geometry": {
        "type": "Point",
        "coordinates": [
          -39.11227312072179,
          46.57952586425741
        ]
      }
    },
    {
      "type": "Feature",
      "properties": {
        "norad_id": 38197,
        "name": "COSMOS 2251 DEB",
        "group": "cosmos-2251-debris",
        "lat": 47.80486048841434,
        "lon": 10.24380322557686,
        "alt_km": 731.4116469120445,
        "timestamp": "2025-12-15T10:55:21.542987+00:00",
        "meta_object_name": "COSMOS 2251 DEB",
        "meta_object_id": "1993-036BSM",
        "meta_epoch": "2025-12-14T07:00:04.920768",
        "meta_mean_motion": 14.74139747,
        "meta_eccentricity": 0.0125907,
        "meta_inclination": 73.9403,
        "meta_ra_of_asc_node": 354.0006,
        "meta_arg_of_pericenter": 231.0385,
        "meta_mean_anomaly": 127.9518,
        "meta_ephemeris_type": 0,
        "meta_classification_type": "U",
        "meta_norad_cat_id": 38197,
        "meta_element_set_no": 999,
        "meta_rev_at_epoch": 85778,
        "meta_bstar": 0.003963351,
        "meta_mean_motion_dot": 0.00029782,
        "meta_mean_motion_ddot": 0,
        "tle_line1": "1 38197U 93036BSM 25348.29172362  .00029782  00000+0  39634-2 0  9997",
        "tle_line2": "2 38197  73.9403 354.0006 0125907 231.0385 127.9518 14.74139747857785"
      },
      "geometry": {
        "type": "Point",
        "coordinates": [
          10.24380322557686,
          47.80486048841434
        ]
      }
    },
    {
      "type": "Feature",
      "properties": {
        "norad_id": 38199,
        "name": "COSMOS 2251 DEB",
        "group": "cosmos-2251-debris",
        "lat": -28.285990605338924,
        "lon": -113.36392667085592,
        "alt_km": 1209.1485829322019,
        "timestamp": "2025-12-15T10:55:21.542997+00:00",
        "meta_object_name": "COSMOS 2251 DEB",
        "meta_object_id": "1993-036BSP",
        "meta_epoch": "2025-12-14T12:46:10.366752",
        "meta_mean_motion": 13.6479649,
        "meta_eccentricity": 0.03697095,
        "meta_inclination": 73.9561,
        "meta_ra_of_asc_node": 59.2441,
        "meta_arg_of_pericenter": 345.3717,
        "meta_mean_anomaly": 13.6916,
        "meta_ephemeris_type": 0,
        "meta_classification_type": "U",
        "meta_norad_cat_id": 38199,
        "meta_element_set_no": 999,
        "meta_rev_at_epoch": 61046,
        "meta_bstar": 0.00058391459,
        "meta_mean_motion_dot": 7.27e-06,
        "meta_mean_motion_ddot": 0,
        "tle_line1": "1 38199U 93036BSP 25348.53206443  .00000727  00000+0  58391-3 0  9994",
        "tle_line2": "2 38199  73.9561  59.2441 0369709 345.3717  13.6916 13.64796490610464"
      },
      "geometry": {
        "type": "Point",
        "coordinates": [
          -113.36392667085592,
          -28.285990605338924
        ]
      }
    },
    {
      "type": "Feature",
      "properties": {
        "norad_id": 38208,
        "name": "COSMOS 2251 DEB",
        "group": "cosmos-2251-debris",
        "lat": 72.95089402870413,
        "lon": -175.76381558836056,
        "alt_km": 608.4872003094106,
        "timestamp": "2025-12-15T10:55:21.543007+00:00",
        "meta_object_name": "COSMOS 2251 DEB",
        "meta_object_id": "1993-036BSY",
        "meta_epoch": "2025-12-13T17:06:55.631232",
        "meta_mean_motion": 14.83950363,
        "meta_eccentricity": 0.00020433,
        "meta_inclination": 74.0053,
        "meta_ra_of_asc_node": 76.977,
        "meta_arg_of_pericenter": 155.4201,
        "meta_mean_anomaly": 358.2431,
        "meta_ephemeris_type": 0,
        "meta_classification_type": "U",
        "meta_norad_cat_id": 38208,
        "meta_element_set_no": 999,
        "meta_rev_at_epoch": 71173,
        "meta_bstar": 0.0025143391,
        "meta_mean_motion_dot": 0.00020943,
        "meta_mean_motion_ddot": 0,
        "tle_line1": "1 38208U 93036BSY 25347.71314388  .00020943  00000+0  25143-2 0  9992",
        "tle_line2": "2 38208  74.0053  76.9770 0002043 155.4201 358.2431 14.83950363711732"
      },
      "geometry": {
        "type": "Point",
        "coordinates": [
          -175.76381558836056,
          72.95089402870413
        ]
      }
    },
    {
      "type": "Feature",
      "properties": {
        "norad_id": 38212,
        "name": "COSMOS 2251 DEB",
        "group": "cosmos-2251-debris",
        "lat": -14.779733543295363,
        "lon": 66.94895845692292,
        "alt_km": 698.4342660789198,
        "timestamp": "2025-12-15T10:55:21.543017+00:00",
        "meta_object_name": "COSMOS 2251 DEB",
        "meta_object_id": "1993-036BTC",
        "meta_epoch": "2025-12-13T23:14:48.711840",
        "meta_mean_motion": 14.77697426,
        "meta_eccentricity": 0.00923484,
        "meta_inclination": 74.0527,
        "meta_ra_of_asc_node": 74.1891,
        "meta_arg_of_pericenter": 140.8526,
        "meta_mean_anomaly": 219.9379,
        "meta_ephemeris_type": 0,
        "meta_classification_type": "U",
        "meta_norad_cat_id": 38212,
        "meta_element_set_no": 999,
        "meta_rev_at_epoch": 81328,
        "meta_bstar": 0.00051158029,
        "meta_mean_motion_dot": 3.901e-05,
        "meta_mean_motion_ddot": 0,
        "tle_line1": "1 38212U 93036BTC 25347.96861935  .00003901  00000+0  51158-3 0  9990",
        "tle_line2": "2 38212  74.0527  74.1891 0092348 140.8526 219.9379 14.77697426813280"
      },
      "geometry": {
        "type": "Point",
        "coordinates": [
          66.94895845692292,
          -14.779733543295363
        ]
      }
    },
    {
      "type": "Feature",
      "properties": {
        "norad_id": 38220,
        "name": "COSMOS 2251 DEB",
        "group": "cosmos-2251-debris",
        "lat": -68.91535762086369,
        "lon": 14.796867285161598,
        "alt_km": 596.3950149831599,
        "timestamp": "2025-12-15T10:55:21.543027+00:00",
        "meta_object_name": "COSMOS 2251 DEB",
        "meta_object_id": "1993-036BTL",
        "meta_epoch": "2025-12-11T22:01:48.758016",
        "meta_mean_motion": 14.92850575,
        "meta_eccentricity": 0.0004483,
        "meta_inclination": 74.014,
        "meta_ra_of_asc_node": 69.9473,
        "meta_arg_of_pericenter": 50.1596,
        "meta_mean_anomaly": 309.9981,
        "meta_ephemeris_type": 0,
        "meta_classification_type": "U",
        "meta_norad_cat_id": 38220,
        "meta_element_set_no": 999,
        "meta_rev_at_epoch": 71358,
        "meta_bstar": 0.0045219,
        "meta_mean_motion_dot": 0.00047133,
        "meta_mean_motion_ddot": 0,
        "tle_line1": "1 38220U 93036BTL 25345.91792544  .00047133  00000+0  45219-2 0  9996",
        "tle_line2": "2 38220  74.0140  69.9473 0004483  50.1596 309.9981 14.92850575713585"
      },
      "geometry": {
        "type": "Point",
        "coordinates": [
          14.796867285161598,
          -68.91535762086369
        ]
      }
    },
    {
      "type": "Feature",
      "properties": {
        "norad_id": 38479,
        "name": "COSMOS 2251 DEB",
        "group": "cosmos-2251-debris",
        "lat": -54.57466056034925,
        "lon": 23.046888718027876,
        "alt_km": 731.5623174241437,
        "timestamp": "2025-12-15T10:55:21.543037+00:00",
        "meta_object_name": "COSMOS 2251 DEB",
        "meta_object_id": "1993-036BTP",
        "meta_epoch": "2025-12-13T19:29:32.997408",
        "meta_mean_motion": 14.3831318,
        "meta_eccentricity": 0.0084157,
        "meta_inclination": 74.007,
        "meta_ra_of_asc_node": 182.3013,
        "meta_arg_of_pericenter": 291.0961,
        "meta_mean_anomaly": 83.9532,
        "meta_ephemeris_type": 0,
        "meta_classification_type": "U",
        "meta_norad_cat_id": 38479,
        "meta_element_set_no": 999,
        "meta_rev_at_epoch": 64703,
        "meta_bstar": 0.0021939338,
        "meta_mean_motion_dot": 6.938e-05,
        "meta_mean_motion_ddot": 0,
        "tle_line1": "1 38479U 93036BTP 25347.81218747  .00006938  00000+0  21939-2 0  9992",
        "tle_line2": "2 38479  74.0070 182.3013 0084157 291.0961  83.9532 14.38313180647034"
      },
      "geometry": {
        "type": "Point",
        "coordinates": [
          23.046888718027876,
          -54.57466056034925
        ]
      }
    }
  ]
}